OBJECT_NAME,OBJECT_ID,EPOCH,MEAN_MOTION,ECCENTRICITY,INCLINATION,RA_OF_ASC_NODE,ARG_OF_PERICENTER,MEAN_ANOMALY,EPHEMERIS_TYPE,CLASSIFICATION_TYPE,NORAD_CAT_ID,ELEMENT_SET_NO,REV_AT_EPOCH,BSTAR,MEAN_MOTION_DOT,MEAN_MOTION_DDOT
TIANMU-1 20,2023-208B,2026-07-01T14:54:03.489408,15.32979685,.00055672,97.4465,299.6470,270.0134,90.0470,0,U,58661,999,13963,.29757827E-3,.9406E-4,0
TIANMU-1 21,2023-208C,2026-07-01T14:05:44.827296,15.35331734,.00057298,97.4524,302.3565,260.0198,100.0399,0,U,58662,999,13977,.34761929E-3,.11857E-3,0
TIANMU-1 22,2023-208D,2026-07-01T13:56:36.936384,15.31256804,.0002199,97.4518,298.8802,293.7551,66.3459,0,U,58663,999,13953,.28353219E-3,.8483E-4,0
TIANMU-1 15,2024-004A,2026-06-30T11:12:42.827904,15.26842605,.00055277,97.4663,7.6584,295.8617,64.2051,0,U,58700,999,13780,.20672607E-3,.5379E-4,0
TIANMU-1 16,2024-004B,2026-07-01T15:17:38.073408,15.26894248,.0004544,97.4610,8.0521,310.3661,49.7180,0,U,58701,999,13798,.23529139E-3,.6142E-4,0
TIANMU-1 17,2024-004C,2026-07-01T14:56:42.292608,15.26892246,.00041704,97.4638,8.5278,318.6252,41.4671,0,U,58702,999,13797,.23344981E-3,.6093E-4,0
TIANMU-1 18,2024-004D,2026-07-01T14:21:12.034944,15.26811561,.00034175,97.4656,8.7645,293.4961,66.5918,0,U,58703,999,13797,.25041302E-3,.6525E-4,0
INSAT-3DS,2024-033A,2026-07-01T10:59:51.987840,1.00269654,.00014529,0.0700,97.3054,354.8248,74.3916,0,U,58990,999,4721,0,-.145E-5,0
METEOR-M2 4,2024-039A,2026-07-01T14:29:06.161856,14.22430940,.00079945,98.7018,141.7208,122.7148,237.4802,0,U,59051,999,12131,.22174651E-4,.6E-7,0
GOES 19,2024-119A,2026-07-01T11:57:39.132576,1.00271599,.00005268,0.0101,80.9326,71.7609,231.0820,0,U,60133,999,710,0,-.238E-5,0
MTG-S1,2025-143A,2026-07-01T03:45:40.226976,1.00272459,.00028333,0.5929,341.8630,265.0195,88.2898,0,U,64723,999,355,0,.3E-7,0
METOP-SGA1,2025-172A,2026-07-01T10:41:19.463424,14.19817298,.00078427,98.6639,241.8713,12.7907,347.3467,0,U,65159,999,4581,.42812545E-4,.48E-6,0
FENGYUN 3H,2025-219A,2026-07-01T06:36:19.171296,14.19922785,.00014194,98.6769,122.7705,66.7567,293.3759,0,U,65815,999,3938,.44167963E-4,.5E-6,0
