TIANMU-1 20             
1 58661U 23208B   26182.62087372  .00009406  00000+0  29758-3 0  9997
2 58661  97.4465 299.6470 0005567 270.0134  90.0470 15.32979685139637
TIANMU-1 21             
1 58662U 23208C   26182.58732439  .00011857  00000+0  34762-3 0  9998
2 58662  97.4524 302.3565 0005729 260.0198 100.0399 15.35331734139777
TIANMU-1 22             
1 58663U 23208D   26182.58098306  .00008483  00000+0  28353-3 0  9997
2 58663  97.4518 298.8802 0002199 293.7551  66.3459 15.31256804139533
TIANMU-1 15             
1 58700U 24004A   26181.46716236  .00005379  00000+0  20673-3 0  9997
2 58700  97.4663   7.6584 0005527 295.8617  64.2051 15.26842605137800
TIANMU-1 16             
1 58701U 24004B   26182.63724622  .00006142  00000+0  23529-3 0  9998
2 58701  97.4610   8.0521 0004544 310.3661  49.7180 15.26894248137989
TIANMU-1 17             
1 58702U 24004C   26182.62271172  .00006093  00000+0  23345-3 0  9996
2 58702  97.4638   8.5278 0004170 318.6252  41.4671 15.26892246137975
TIANMU-1 18             
1 58703U 24004D   26182.59805596  .00006525  00000+0  25041-3 0  9991
2 58703  97.4656   8.7645 0003417 293.4961  66.5918 15.26811561137979
INSAT-3DS               
1 58990U 24033A   26182.45824060 -.00000145  00000+0  00000+0 0  9990
2 58990   0.0700  97.3054 0001452 354.8248  74.3916  1.00269654 47211
METEOR-M2 4             
1 59051U 24039A   26182.60354354  .00000006  00000+0  22175-4 0  9993
2 59051  98.7018 141.7208 0007994 122.7148 237.4802 14.22430940121315
GOES 19                 
1 60133U 24119A   26182.49836959 -.00000238  00000+0  00000+0 0  9994
2 60133   0.0101  80.9326 0000526  71.7609 231.0820  1.00271599  7106
MTG-S1                  
1 64723U 25143A   26182.15671559  .00000003  00000+0  00000+0 0  9996
2 64723   0.5929 341.8630 0002833 265.0195  88.2898  1.00272459  3554
METOP-SGA1              
1 65159U 25172A   26182.44536416  .00000048  00000+0  42813-4 0  9998
2 65159  98.6639 241.8713 0007842  12.7907 347.3467 14.19817298 45814
FENGYUN 3H              
1 65815U 25219A   26182.27522189  .00000050  00000+0  44168-4 0  9990
2 65815  98.6769 122.7705 0001419  66.7567 293.3759 14.19922785 39387
